     2              NAVIGATION DATA                         RINEX VERSION / TYPE
CCRINEXN V1.6.0 UX  CDDIS               03-MAY-16 15:33     PGM / RUN BY / DATE 
IGS BROADCAST EPHEMERIS FILE                                COMMENT             
    0.1304D-07  0.2235D-07 -0.5960D-07 -0.1192D-06          ION ALPHA           
    0.1004D+06  0.1147D+06 -0.1311D+06 -0.4588D+06          ION BETA            
    0.931322574615D-09 0.444089209850D-14   233472     1895 DELTA-UTC: A0,A1,T,W
    17                                                      LEAP SECONDS        
                                                            END OF HEADER       
26 16  5  2 10  0  0.0-0.350478570908D-03-0.129602995003D-10 0.000000000000D+00
    0.480000000000D+02-0.137500000000D+01 0.420910389750D-08-0.248804895416D+01
    0.745058059692D-08 0.102754868567D-02 0.110529363155D-04 0.515375274468D+04
    0.122400000000D+06 0.484287738800D-07 0.239349482406D+01 0.596046447754D-07
    0.960615088949D+00 0.168406250000D+03 0.148728327246D+00-0.792783022595D-08
    0.321441960777D-10 0.100000000000D+01 0.189500000000D+04 0.000000000000D+00
    0.200000000000D+01 0.000000000000D+00 0.698491930962D-08 0.480000000000D+02
    0.115218000000D+06 0.400000000000D+01 0.000000000000D+00 0.000000000000D+00
27 16  5  2 10  0  0.0 0.881874002516D-04 0.397903932026D-11 0.000000000000D+00
    0.410000000000D+02 0.387187500000D+02 0.440482633584D-08 0.221143301454D+01
    0.200234353542D-05 0.360208365601D-02 0.538676977158D-05 0.515364008903D+04
    0.122400000000D+06-0.838190317154D-07-0.284014481479D+01 0.651925802231D-07
    0.971266383361D+00 0.278687500000D+03 0.254578529978D+00-0.820962767823D-08
    0.436446751188D-09 0.100000000000D+01 0.189500000000D+04 0.000000000000D+00
    0.200000000000D+01 0.000000000000D+00 0.139698386192D-08 0.410000000000D+02
    0.115218000000D+06 0.400000000000D+01 0.000000000000D+00 0.000000000000D+00
29 16  5  2 10  0  0.0 0.657134223729D-03 0.113686837722D-12 0.000000000000D+00
    0.840000000000D+02 0.310000000000D+02 0.432696594979D-08-0.170456068445D+01
    0.161305069923D-05 0.102424481884D-02 0.545568764210D-05 0.515357540512D+04
    0.122400000000D+06-0.651925802231D-07-0.278071601340D+01 0.223517417908D-07
    0.977257641469D+00 0.283875000000D+03-0.330164060498D+00-0.816069706865D-08
    0.450018745087D-09 0.100000000000D+01 0.189500000000D+04 0.000000000000D+00
    0.200000000000D+01 0.000000000000D+00-0.102445483208D-07 0.840000000000D+02
    0.115218000000D+06 0.400000000000D+01 0.000000000000D+00 0.000000000000D+00
30 16  5  2 10  0  0.0 0.121782999486D-03 0.329691829393D-11 0.000000000000D+00
    0.500000000000D+02-0.337500000000D+02 0.479341395065D-08-0.495241755390D+00
   -0.194273889065D-05 0.198559986893D-02 0.708177685738D-05 0.515360698700D+04
    0.122400000000D+06 0.540167093277D-07 0.142127865577D+01-0.186264514923D-07
    0.952206436249D+00 0.240093750000D+03 0.298683102982D+01-0.829248827257D-08
   -0.546451333320D-09 0.000000000000D+00 0.189500000000D+04 0.000000000000D+00
    0.200000000000D+01 0.000000000000D+00 0.325962901115D-08 0.500000000000D+02
    0.117000000000D+06 0.400000000000D+01 0.000000000000D+00 0.000000000000D+00
31 16  5  2 10  0  0.0 0.270983669907D-03-0.181898940355D-11 0.000000000000D+00
    0.770000000000D+02-0.413437500000D+02 0.445054260112D-08-0.747811295079D+00
   -0.216066837311D-05 0.819727918133D-02 0.633671879768D-05 0.515373533630D+04
    0.122400000000D+06-0.391155481338D-07 0.138600260261D+01-0.225380063057D-06
    0.971245776697D+00 0.265281250000D+03-0.399916758161D+00-0.821355605751D-08
   -0.459662002905D-09 0.100000000000D+01 0.189500000000D+04 0.000000000000D+00
    0.200000000000D+01 0.000000000000D+00-0.135041773319D-07 0.770000000000D+02
    0.115200000000D+06 0.000000000000D+00 0.000000000000D+00 0.000000000000D+00
11 16  5  2 11 59 44.0-0.645018648356D-03-0.250111042988D-11 0.000000000000D+00
    0.200000000000D+01-0.355000000000D+02 0.647276961684D-08 0.525310032311D+00
   -0.199861824512D-05 0.163066965761D-01 0.352784991264D-05 0.515365604591D+04
    0.129584000000D+06-0.162050127983D-06-0.215781277473D+01-0.126659870148D-06
    0.896180200908D+00 0.279531250000D+03 0.151961910459D+01-0.951325340805D-08
   -0.425017703693D-10 0.100000000000D+01 0.189500000000D+04 0.000000000000D+00
    0.200000000000D+01 0.000000000000D+00-0.121071934700D-07 0.200000000000D+01
    0.123186000000D+06 0.400000000000D+01 0.000000000000D+00 0.000000000000D+00
12 16  5  2 11 59 44.0 0.378332100809D-03 0.125055521494D-11 0.000000000000D+00
    0.900000000000D+01 0.311562500000D+02 0.362122226701D-08-0.114737033612D+00
    0.156648457050D-05 0.612829963211D-02 0.112950801849D-04 0.515374744606D+04
    0.129584000000D+06 0.763684511185D-07 0.245258312249D+01 0.126659870148D-06
    0.990426095634D+00 0.176406250000D+03 0.728822135647D+00-0.775318009393D-08
    0.000000000000D+00 0.100000000000D+01 0.189500000000D+04 0.000000000000D+00
    0.200000000000D+01 0.000000000000D+00-0.125728547573D-07 0.900000000000D+01
    0.124620000000D+06 0.400000000000D+01 0.000000000000D+00 0.000000000000D+00
14 16  5  2 11 59 44.0-0.115921720862D-04-0.216004991671D-11 0.000000000000D+00
    0.200000000000D+01 0.610000000000D+02 0.484770192624D-08 0.310147742542D+01
    0.317767262459D-05 0.854355539195D-02 0.598840415478D-05 0.515400345230D+04
    0.129584000000D+06 0.968575477600D-07 0.381912084080D+00-0.195577740669D-06
    0.964437537358D+00 0.262406250000D+03-0.196650913238D+01-0.819426989566D-08
    0.196793911542D-09 0.100000000000D+01 0.189500000000D+04 0.000000000000D+00
    0.200000000000D+01 0.000000000000D+00-0.931322574616D-08 0.200000000000D+01
    0.123156000000D+06 0.400000000000D+01 0.000000000000D+00 0.000000000000D+00
 1 16  5  2 12  0  0.0 0.191116705537D-04 0.113686837722D-11 0.000000000000D+00
    0.720000000000D+02-0.729375000000D+02 0.468340936851D-08 0.113928485666D+01
   -0.393018126488D-05 0.535394449253D-02 0.596605241299D-05 0.515364589691D+04
    0.129600000000D+06-0.316649675369D-07-0.178246430375D+01 0.186264514923D-07
    0.963862676384D+00 0.266656250000D+03 0.453516214291D+00-0.830713173967D-08
   -0.214294640518D-09 0.100000000000D+01 0.189500000000D+04 0.000000000000D+00
    0.200000000000D+01 0.000000000000D+00 0.512227416039D-08 0.720000000000D+02
    0.124452000000D+06 0.400000000000D+01 0.000000000000D+00 0.000000000000D+00
 2 16  5  2 12  0  0.0 0.594079960138D-03-0.204636307899D-11 0.000000000000D+00
    0.880000000000D+02-0.733437500000D+02 0.518164440772D-08 0.151210322837D+01
   -0.386871397495D-05 0.156631004065D-01 0.647641718388D-05 0.515376591301D+04
    0.129600000000D+06-0.406056642532D-06-0.182745965109D+01-0.391155481338D-07
    0.942633553843D+00 0.245062500000D+03-0.212504756737D+01-0.864214569434D-08
   -0.196436753808D-09 0.000000000000D+00 0.189500000000D+04 0.000000000000D+00
    0.200000000000D+01 0.000000000000D+00-0.200234353542D-07 0.880000000000D+02
    0.122400000000D+06 0.400000000000D+01 0.000000000000D+00 0.000000000000D+00
 3 16  5  2 12  0  0.0-0.535850413144D-04-0.397903932026D-11 0.000000000000D+00
    0.750000000000D+02-0.703125000000D+01 0.451233081383D-08 0.269441132809D+01
   -0.316649675369D-06 0.247196760029D-03 0.120736658573D-04 0.515371929169D+04
    0.129600000000D+06 0.167638063431D-07-0.740827356353D+00-0.279396772385D-07
    0.959364103811D+00 0.150843750000D+03-0.222248468183D+01-0.791997275580D-08
    0.885751180806D-10 0.100000000000D+01 0.189500000000D+04 0.000000000000D+00
    0.200000000000D+01 0.000000000000D+00 0.186264514923D-08 0.750000000000D+02
    0.128946000000D+06 0.400000000000D+01 0.000000000000D+00 0.000000000000D+00
 4 16  5  2 12  0  0.0-0.255548395217D-03-0.682121026330D-12 0.000000000000D+00
    0.940000000000D+02 0.665625000000D+01 0.484698770009D-08-0.196217992769D+01
    0.376254320145D-06 0.846366514452D-02 0.119376927614D-04 0.515364515495D+04
    0.129600000000D+06 0.856816768646D-07 0.242349012478D+01-0.119209289551D-06
    0.983426720196D+00 0.161187500000D+03 0.877372179993D+00-0.754138529402D-08
   -0.357157744135D-12 0.100000000000D+01 0.189500000000D+04 0.000000000000D+00
    0.400000000000D+01 0.100000000000D+01-0.195577740669D-07 0.940000000000D+02
    0.122400000000D+06 0.000000000000D+00 0.000000000000D+00 0.000000000000D+00
 5 16  5  2 12  0  0.0-0.124155543745D-03 0.306954461848D-11 0.000000000000D+00
    0.120000000000D+02 0.693750000000D+01 0.475734101949D-08-0.225890216658D+01
    0.428408384323D-07 0.457493483555D-02 0.124871730804D-04 0.515378804588D+04
    0.129600000000D+06-0.558793544769D-08-0.752387333552D+00-0.633299350738D-07
    0.946435331219D+00 0.131125000000D+03 0.456697671977D+00-0.803854912355D-08
    0.167864135072D-09 0.000000000000D+00 0.189500000000D+04 0.000000000000D+00
    0.200000000000D+01 0.000000000000D+00-0.107102096081D-07 0.120000000000D+02
    0.122400000000D+06 0.400000000000D+01 0.000000000000D+00 0.000000000000D+00
 6 16  5  2 12  0  0.0 0.184299424291D-03 0.557065504836D-11 0.000000000000D+00
    0.750000000000D+02-0.734062500000D+02 0.457269047091D-08 0.154771711466D+01
   -0.366941094399D-05 0.443385331891D-03 0.650994479656D-05 0.515368199158D+04
    0.129600000000D+06-0.298023223877D-07-0.179090450428D+01-0.130385160446D-07
    0.963698131747D+00 0.253062500000D+03-0.150959070607D+01-0.820498462769D-08
   -0.141434462742D-09 0.000000000000D+00 0.189500000000D+04 0.000000000000D+00
    0.200000000000D+01 0.000000000000D+00 0.419095158577D-08 0.750000000000D+02
    0.122400000000D+06 0.400000000000D+01 0.000000000000D+00 0.000000000000D+00
